ONEWEB-0721             
1 56725U 23068R   26201.12726137 -.00000017  00000+0 -76590-4 0  9994
2 56725  86.6737  74.9993 0001743  80.6418 279.4912 13.22471272162292
ONEWEB-0015             
1 61594U 24188A   26201.04077212 -.00000473  00000+0 -13712-2 0  9993
2 61594  87.8885  14.5499 0001389  79.7283 280.4002 13.11415998 88767
ONEWEB-0687             
1 61595U 24188B   26201.18707453 -.00000184  00000+0 -50615-3 0  9999
2 61595  87.9146 359.3104 0001832  78.4054 281.7284 13.17648264 90249
ONEWEB-0688             
1 61596U 24188C   26201.13981577  .00000090  00000+0  19743-3 0  9997
2 61596  87.9146 359.3195 0000890  59.7342 300.3878 13.17648389 90239
ONEWEB-0689             
1 61597U 24188D   26200.99839234  .00000359  00000+0  97839-3 0  9993
2 61597  87.8896  14.5214 0002063  84.9985 275.1378 13.11418191 88758
ONEWEB-0690             
1 61598U 24188E   26201.00857635  .00000523  00000+0  14395-2 0  9990
2 61598  87.8895  14.5294 0001766 112.2958 247.8357 13.11417223 88938
ONEWEB-0691             
1 61599U 24188F   26201.00349133  .00000407  00000+0  11114-2 0  9997
2 61599  87.8907  14.4418 0001609  80.4995 279.6315 13.11417403 88783
ONEWEB-0692             
1 61600U 24188G   26201.02382062  .00000277  00000+0  74556-3 0  9995
2 61600  87.8885  14.5452 0002638  92.5015 267.6415 13.11416519 88774
ONEWEB-0693             
1 61601U 24188H   26200.99976684 -.00000134  00000+0 -37818-3 0  9994
2 61601  87.9142 359.3658 0001610 119.3279 240.8013 13.17649169 90202
ONEWEB-0695             
1 61602U 24188J   26201.22898556  .00000278  00000+0  74810-3 0  9993
2 61602  87.8883  14.4964 0002340  85.9520 274.1876 13.11417968 88793
ONEWEB-0697             
1 61603U 24188K   26201.18489662 -.00000061  00000+0 -20734-3 0  9991
2 61603  87.8887  14.4956 0002597  94.5772 265.5653 13.11415574 88774
ONEWEB-0698             
1 61604U 24188L   26201.23916385  .00000600  00000+0  16583-2 0  9998
2 61604  87.8886  14.4983 0002665 113.8546 246.2862 13.11417115 88809
ONEWEB-0699             
1 61605U 24188M   26201.04898857  .00000643  00000+0  18051-2 0  9990
2 61605  87.8819  29.7163 0002496  94.6843 265.4569 13.10374383 87616
ONEWEB-0700             
1 61606U 24188N   26201.27976533  .00000980  00000+0  27721-2 0  9992
2 61606  87.8841  29.5847 0002519  92.0958 268.0458 13.10367069 87635
ONEWEB-0701             
1 61607U 24188P   26201.06765066  .00000193  00000+0  51551-3 0  9992
2 61607  87.8818  29.7129 0002617  95.6528 264.4898 13.10369737 87616
ONEWEB-0702             
1 61608U 24188Q   26200.97974302 -.00000397  00000+0 -11549-2 0  9997
2 61608  87.8908  14.4618 0002868  90.0704 270.0753 13.11417763 88780
ONEWEB-0704             
1 61609U 24188R   26201.28484587  .00000633  00000+0  17764-2 0  9990
2 61609  87.8823  29.6600 0002879  85.4616 274.6840 13.10371298 87628
ONEWEB-0705             
1 61610U 24188S   26201.06086797  .00000545  00000+0  15237-2 0  9994
2 61610  87.8824  29.7107 0002570  70.5604 289.5801 13.10370590 79766
ONEWEB-0706             
1 61611U 24188T   26201.04559215  .00000542  00000+0  15166-2 0  9991
2 61611  87.8822  29.7171 0002402  83.3560 276.7841 13.10374900 87684
ONEWEB-0707             
1 61612U 24188U   26201.05237550  .00000586  00000+0  16410-2 0  9999
2 61612  87.8825  29.7113 0002419  84.6954 275.4449 13.10371416 87626
ONEWEB-0708             
1 61613U 24188V   26201.22374716  .00000071  00000+0  16604-3 0  9990
2 61613  87.8813  29.6929 0001891  71.5762 288.5571 13.10368561 87621
